{
  "type": "FeatureCollection",
  "features": [
    {
      "type": "Feature",
      "properties": {
        "norad_id": 28899,
        "name": "INMARSAT 4-F2 (SOUTHPAN/PRN 122)",
        "group": "gnss",
        "lat": 2.695564662858323,
        "lon": 77.01231728868264,
        "alt_km": 35796.36937340893,
        "timestamp": "2025-12-17T13:48:37.796751+00:00",
        "meta_object_name": "INMARSAT 4-F2 (SOUTHPAN/PRN 122)",
        "meta_object_id": "2005-044A",
        "meta_epoch": "2025-12-16T22:36:03.528864",
        "meta_mean_motion": 1.00271378,
        "meta_eccentricity": 0.00025154,
        "meta_inclination": 4.8571,
        "meta_ra_of_asc_node": 43.6989,
        "meta_arg_of_pericenter": 224.632,
        "meta_mean_anomaly": 300.0135,
        "meta_ephemeris_type": 0,
        "meta_classification_type": "U",
        "meta_norad_cat_id": 28899,
        "meta_element_set_no": 999,
        "meta_rev_at_epoch": 7369,
        "meta_bstar": 0,
        "meta_mean_motion_dot": -2.41e-06,
        "meta_mean_motion_ddot": 0,
        "tle_line1": "1 28899U 05044A   25350.94170751 -.00000241  00000+0  00000+0 0  9994",
        "tle_line2": "2 28899   4.8571  43.6989 0002515 224.6320 300.0135  1.00271378 73690"
      },
      "geometry": {
        "type": "Point",
        "coordinates": [
          77.01231728868264,
          2.695564662858323
        ]
      }
    },
    {
      "type": "Feature",
      "properties": {
        "norad_id": 29486,
        "name": "GPS BIIRM-2 (PRN 31)",
        "group": "gnss",
        "lat": 35.66765220287784,
        "lon": -170.87189632107982,
        "alt_km": 19895.470851285907,
        "timestamp": "2025-12-17T13:48:37.796764+00:00",
        "meta_object_name": "GPS BIIRM-2 (PRN 31)",
        "meta_object_id": "2006-042A",
        "meta_epoch": "2025-12-16T18:24:54.505728",
        "meta_mean_motion": 2.00554045,
        "meta_eccentricity": 0.01073341,
        "meta_inclination": 54.6946,
        "meta_ra_of_asc_node": 158.5809,
        "meta_arg_of_pericenter": 52.0567,
        "meta_mean_anomaly": 130.2096,
        "meta_ephemeris_type": 0,
        "meta_classification_type": "U",
        "meta_norad_cat_id": 29486,
        "meta_element_set_no": 999,
        "meta_rev_at_epoch": 14073,
        "meta_bstar": 0,
        "meta_mean_motion_dot": 8.7e-07,
        "meta_mean_motion_ddot": 0,
        "tle_line1": "1 29486U 06042A   25350.76729752  .00000087  00000+0  00000+0 0  9994",
        "tle_line2": "2 29486  54.6946 158.5809 0107334  52.0567 130.2096  2.00554045140735"
      },
      "geometry": {
        "type": "Point",
        "coordinates": [
          -170.87189632107982,
          35.66765220287784
        ]
      }
    },
    {
      "type": "Feature",
      "properties": {
        "norad_id": 29601,
        "name": "GPS BIIRM-3 (PRN 12)",
        "group": "gnss",
        "lat": 52.61704673308902,
        "lon": -25.338820038857747,
        "alt_km": 19951.506201569657,
        "timestamp": "2025-12-17T13:48:37.796778+00:00",
        "meta_object_name": "GPS BIIRM-3 (PRN 12)",
        "meta_object_id": "2006-052A",
        "meta_epoch": "2025-12-15T22:30:08.867232",
        "meta_mean_motion": 2.00573827,
        "meta_eccentricity": 0.00878265,
        "meta_inclination": 54.9699,
        "meta_ra_of_asc_node": 221.2713,
        "meta_arg_of_pericenter": 87.4673,
        "meta_mean_anomaly": 273.6251,
        "meta_ephemeris_type": 0,
        "meta_classification_type": "U",
        "meta_norad_cat_id": 29601,
        "meta_element_set_no": 999,
        "meta_rev_at_epoch": 13973,
        "meta_bstar": 0,
        "meta_mean_motion_dot": 6e-07,
        "meta_mean_motion_ddot": 0,
        "tle_line1": "1 29601U 06052A   25349.93760263  .00000060  00000+0  00000+0 0  9994",
        "tle_line2": "2 29601  54.9699 221.2713 0087826  87.4673 273.6251  2.00573827139739"
      },
      "geometry": {
        "type": "Point",
        "coordinates": [
          -25.338820038857747,
          52.61704673308902
        ]
      }
    },
    {
      "type": "Feature",
      "properties": {
        "norad_id": 32260,
        "name": "GPS BIIRM-4 (PRN 15)",
        "group": "gnss",
        "lat": -46.78504833541242,
        "lon": -41.7371409282057,
        "alt_km": 20592.709990898707,
        "timestamp": "2025-12-17T13:48:37.796790+00:00",
        "meta_object_name": "GPS BIIRM-4 (PRN 15)",
        "meta_object_id": "2007-047A",
        "meta_epoch": "2025-12-16T05:50:40.703424",
        "meta_mean_motion": 2.00564422,
        "meta_eccentricity": 0.01640582,
        "meta_inclination": 53.9575,
        "meta_ra_of_asc_node": 87.6137,
        "meta_arg_of_pericenter": 85.2876,
        "meta_mean_anomaly": 276.573,
        "meta_ephemeris_type": 0,
        "meta_classification_type": "U",
        "meta_norad_cat_id": 32260,
        "meta_element_set_no": 999,
        "meta_rev_at_epoch": 13314,
        "meta_bstar": 0,
        "meta_mean_motion_dot": -5.5e-07,
        "meta_mean_motion_ddot": 0,
        "tle_line1": "1 32260U 07047A   25350.24352666 -.00000055  00000+0  00000+0 0  9999",
        "tle_line2": "2 32260  53.9575  87.6137 0164058  85.2876 276.5730  2.00564422133148"
      },
      "geometry": {
        "type": "Point",
        "coordinates": [
          -41.7371409282057,
          -46.78504833541242
        ]
      }
    },
    {
      "type": "Feature",
      "properties": {
        "norad_id": 32275,
        "name": "COSMOS 2433 (720)",
        "group": "gnss",
        "lat": -19.51737671071039,
        "lon": 151.25149707815265,
        "alt_km": 19124.217120595113,
        "timestamp": "2025-12-17T13:48:37.796803+00:00",
        "meta_object_name": "COSMOS 2433 (720)",
        "meta_object_id": "2007-052A",
        "meta_epoch": "2025-12-14T23:11:38.718240",
        "meta_mean_motion": 2.13103955,
        "meta_eccentricity": 0.00054201,
        "meta_inclination": 65.6819,
        "meta_ra_of_asc_node": 322.1305,
        "meta_arg_of_pericenter": 253.5649,
        "meta_mean_anomaly": 106.3736,
        "meta_ephemeris_type": 0,
        "meta_classification_type": "U",
        "meta_norad_cat_id": 32275,
        "meta_element_set_no": 999,
        "meta_rev_at_epoch": 14113,
        "meta_bstar": 0,
        "meta_mean_motion_dot": -6.5e-07,
        "meta_mean_motion_ddot": 0,
        "tle_line1": "1 32275U 07052A   25348.96642035 -.00000065  00000+0  00000+0 0  9990",
        "tle_line2": "2 32275  65.6819 322.1305 0005420 253.5649 106.3736  2.13103955141132"
      },
      "geometry": {
        "type": "Point",
        "coordinates": [
          151.25149707815265,
          -19.51737671071039
        ]
      }
    },
    {
      "type": "Feature",
      "properties": {
        "norad_id": 32276,
        "name": "COSMOS 2432 (719)",
        "group": "gnss",
        "lat": 30.65911496067098,
        "lon": 126.6181775620815,
        "alt_km": 19154.291490511456,
        "timestamp": "2025-12-17T13:48:37.796815+00:00",
        "meta_object_name": "COSMOS 2432 (719)",
        "meta_object_id": "2007-052B",
        "meta_epoch": "2025-12-15T06:31:38.583840",
        "meta_mean_motion": 2.13103103,
        "meta_eccentricity": 0.00112605,
        "meta_inclination": 65.6973,
        "meta_ra_of_asc_node": 322.2446,
        "meta_arg_of_pericenter": 312.4858,
        "meta_mean_anomaly": 226.3212,
        "meta_ephemeris_type": 0,
        "meta_classification_type": "U",
        "meta_norad_cat_id": 32276,
        "meta_element_set_no": 999,
        "meta_rev_at_epoch": 14116,
        "meta_bstar": 0,
        "meta_mean_motion_dot": -6.6e-07,
        "meta_mean_motion_ddot": 0,
        "tle_line1": "1 32276U 07052B   25349.27197435 -.00000066  00000+0  00000+0 0  9996",
        "tle_line2": "2 32276  65.6973 322.2446 0011260 312.4858 226.3212  2.13103103141167"
      },
      "geometry": {
        "type": "Point",
        "coordinates": [
          126.6181775620815,
          30.65911496067098
        ]
      }
    },
    {
      "type": "Feature",
      "properties": {
        "norad_id": 32384,
        "name": "GPS BIIRM-5 (PRN 29)",
        "group": "gnss",
        "lat": 10.482068751203897,
        "lon": -71.17735180297443,
        "alt_km": 20253.680048844268,
        "timestamp": "2025-12-17T13:48:37.796827+00:00",
        "meta_object_name": "GPS BIIRM-5 (PRN 29)",
        "meta_object_id": "2007-062A",
        "meta_epoch": "2025-12-16T19:22:21.732672",
        "meta_mean_motion": 2.00577594,
        "meta_eccentricity": 0.0032249,
        "meta_inclination": 55.1786,
        "meta_ra_of_asc_node": 281.4828,
        "meta_arg_of_pericenter": 162.2986,
        "meta_mean_anomaly": 15.9546,
        "meta_ephemeris_type": 0,
        "meta_classification_type": "U",
        "meta_norad_cat_id": 32384,
        "meta_element_set_no": 999,
        "meta_rev_at_epoch": 13185,
        "meta_bstar": 0,
        "meta_mean_motion_dot": -6.1e-07,
        "meta_mean_motion_ddot": 0,
        "tle_line1": "1 32384U 07062A   25350.80719598 -.00000061  00000+0  00000+0 0  9993",
        "tle_line2": "2 32384  55.1786 281.4828 0032249 162.2986  15.9546  2.00577594131858"
      },
      "geometry": {
        "type": "Point",
        "coordinates": [
          -71.17735180297443,
          10.482068751203897
        ]
      }
    }
  ]
}